{
  "norad_id": 66164,
  "name": "STARLINK-35614",
  "history": [
    {
      "epoch": "2026-03-28T22:50:30.112224",
      "apogee_km": 476.1379784327564,
      "perigee_km": 474.18067700156007,
      "latitude_deg": -48.13301671420907,
      "longitude_deg": 167.7667913599871,
      "semi_major_axis_km": 6853.2963277171575,
      "eccentricity": 0.0001428,
      "inclination_deg": 53.1616,
      "raan_deg": 333.6112,
      "arg_perigee_deg": 82.9168,
      "mean_anomaly_deg": 277.1995,
      "mean_motion_rev_day": 15.30218669
    }
  ]
}